AgencyRef,AgencyName,Addr1,Addr2,City,State,Zip,Phone,County,Group
00032,CHILD INC-HOPE I-Sparrow Run 1,148 FLAMINGO DR,,NEWARK,DE,19702,(302)832-5452,NEW CASTLE,BROWN BAG CLUB
00034,CHILD INC. - HOPE II Sparrow Run 2,148 FLAMINGO DRIVE,,NEWARK,DE,19702,(302)832-5452,NEW CASTLE,BROWN BAG CLUB
007809,CC-Thrift Center -Hope ,1320 East 4th Street,,Wilmington ,DE,19802,(302)764-2717,NEW CASTLE,BROWN BAG CLUB
03813,LIFE Tree of Life,505 Osbourne Street,,Odessa,DE,19730,(302)654-8886,NEW CASTLE,BROWN BAG CLUB
03814,LCS-New Calvary Baptist Church Hope Club,610 South Heald Street,,Wilmington,DE,19801,(302)475-3726,NEW CASTLE,BROWN BAG CLUB
03815,LCS Grace of God Grocery Club Millsboro,31768 Legion Rd,50 Comance Cirlce- Pat Barns- mail,Millsboro,DE,19966,(302)945-3108,SUSSEX,BROWN BAG CLUB
03819,LCS- Food From Faith- Hope ,2265 Red Lion Road,,Bear,DE,19701,(302)654-8886,NEW CASTLE,BROWN BAG CLUB
07083,CC-Casa San Francisco/HOPE,127 Broad Street,,Milton ,DE,19968,(302)684-8694,SUSSEX,BROWN BAG CLUB
10106,DOVER FIRST SDA HOPE,647 WYOMING AVENUE,,DOVER,DE,19901,(302)674-3680,DELAWARE KENT,BROWN BAG CLUB
03818,LCS- Choice Pantry,2809 Baynard Blvd. ,,Wilmington,DE,19802,(302)654-8886,NEW CASTLE,CHOICE PANTRY
17221,SOLID ROCK-FC,283 Black Diamond Rd,"807 Hazlettville Road, Hartley serv",Smyrna,DE,19977,(302)653-5481,DELAWARE KENT,CHOICE PANTRY
200771,Rose Hill Community Center FC,19 Lambsons Lane,,New Castle,DE,19720,(302)656-8513,NEW CASTLE,CHOICE PANTRY
201251,PIC closet- Ewell's St. Paul UMC (Non foods Only),401 West street,,Clayton,DE,19938,(302)667-3078,DELAWARE KENT,CHOICE PANTRY
201271,Love-In-Deed Food Closet (Perfecting Holiness),3016 Governor Printz Blvd,,Wilmington ,DE,19802,(302)384-8045,NEW CASTLE,CHOICE PANTRY
201371,Marshallton UMC Food Closet,1105 Stanton Rd,,Wilmington ,DE,,(302)994-7466,NEW CASTLE,CHOICE PANTRY
201501,Cedars Church of Christ-Pantry,511 Greenbank Road,,Wilmington,DE,19808,(302)994-3800,NEW CASTLE,CHOICE PANTRY
207001,The Resurrection Center-Benevolence FC,3301 N. Market Street,,Wilmington,DE,19802,(302)762-8311,NEW CASTLE,CHOICE PANTRY
215091,Greater Wilmington Adventist Community Services Food Closet,"105 Mt Vernon Dr, Bear 19701 (mail)",2200 N. Claymont St. is Service add,Wilmington,DE,19802,(302)239-9758,NEW CASTLE,CHOICE PANTRY
220001,New Castle SDA Spanish Church Food Pantry,6 N. Clifton Street,(Elsmere),Wilmington,DE,19805,(302)507-6529,NEW CASTLE,CHOICE PANTRY
230111,Milford Multi Cultural CC- Food Pantry (Hearts Unlimted),105 N E Front Street,,Milford,DE,19963,(302)725-0770,DELAWARE KENT,CHOICE PANTRY
600600,FBD-HK-Eisenberg Elementary- SCP,27 Landers Lane,,New Castle ,DE,19720,(302)429-4046,NEW CASTLE,CHOICE PANTRY
600601,FBD- HK-Eastside Charter School- SCP,3000 N Claymont Street,,Wilmington ,DE,19802,(302)932-0570,NEW CASTLE,CHOICE PANTRY
600602,FBD-HK-Lake Forest High School-SCP,5407 Killens Pond Road,,Felton,DE,19943,(302)284-9291,DELAWARE KENT,CHOICE PANTRY
600604,FBD-HK-Bancroft Elementary-SCP,700 N. Lombard Street,,Wilmington,DE,19801,(302)429-4102,NEW CASTLE,CHOICE PANTRY
600605,FBD-HK-Stubbs Elementary-SCP,1100 N Pine Street,,Wilmington ,DE,19801,(302)429-4175,NEW CASTLE,CHOICE PANTRY
600607,FBD- HK-Castle Hills Elementary-SCP,502 Moores Lane,,New Castle,DE,19720,(302)323-2915,NEW CASTLE,CHOICE PANTRY
600608,FBD-HK-William Penn Highschool-SCP,Back of the WP building-round back,713 Basin Road,New Castle,DE,19720,(302)323-2800,NEW CASTLE,CHOICE PANTRY
600609,FBD- HK-Southern Elementary- SCP,795 Cox Neck Road,,New Castle,DE,19720,(302)832-6310,NEW CASTLE,CHOICE PANTRY
600610,FBD-HK-Pleasantville Elementary-SCP,16 Pleasant Place,,New Castle,DE,19720,(302)323-2935,NEW CASTLE,CHOICE PANTRY
600612,FBD- HK-New Castle School-SCP,903 Delaware Street,,New Castle,DE,19720,(302)323-2880,NEW CASTLE,CHOICE PANTRY
600614,FBD-HK- P.S.duPont Middle School-SCP,701 W. 34th street,,Wilmimgton,DE,19805,(302)762-7146,NEW CASTLE,CHOICE PANTRY
600616,FBD-HK-GW Carver Education Center- SCP,IRSD Parent Center,Entrance in the side parking lot,Frankford,DE,19945,(302)732-1522,SUSSEX,CHOICE PANTRY
600617,FBD-HK-Milton Elementary- SCP,512 Federal Street,,Milton,DE,19968,(302)684-2516,SUSSEX,CHOICE PANTRY
600619,FBD-HK-Milford High School-SCP,1019 N. Walnut Street,(Room 306),Milford,DE,19963,(302)422-1610,DELAWARE KENT,CHOICE PANTRY
600620,FBD-HK-Philis Wheatly Elementary (PWES)- SCP,48 Church Street,,Bridgville ,DE,19933,(302)337-3469,SUSSEX,CHOICE PANTRY
600622,FBD-HK-Cape Henlopen-SCP,1250 Kings Highway,,Lewes,DE,19958,(302)645-7988,SUSSEX,CHOICE PANTRY
600623,FBD-HK-H. O. Brittingham Elementary-SCP,400 Mulberry Street,,Milton,DE,19968,(302)684-8522,SUSSEX,CHOICE PANTRY
600624,FBD-HK-Sussex Consortium- SCP,820 Savannah Rd.,,Lewes ,DE,19958,(302)645-7210,SUSSEX,CHOICE PANTRY
600625,FBD-HK-KCSILC- Kent County -SCP,631 Ridgely Street,,Dover ,DE,19901,(302)736-5355,DELAWARE KENT,CHOICE PANTRY
600627,FBD-HK-Morris Early Childhood Center-SCP,8609 Third Street,,Lincoln ,DE,19960,(302)422-1650,SUSSEX,CHOICE PANTRY
600628,FBD-HK-Delmar School District (Middle/High)-SCP,104 N. 2nd Street (American Legion),200 N 8th Street (School) ,Delmar,DE,19940,(302)846-9544,SUSSEX,CHOICE PANTRY
600629,FBD-HK-Community Education Building- CEB-SCP,1200 N. French Street,Deliver at loading dock n. Walnut,Wilmington,DE,19801,(302)660-4804,NEW CASTLE,CHOICE PANTRY
600630,FBD-HK-Lake Forest Central Elem-SCP,5424 Killens Pond Road,,Felton,DE,19943,(302)284-5810,DELAWARE KENT,CHOICE PANTRY
600633,FBD-HK-South Dover Elementary- SCP ,955 South State Street,,Dover,DE,19901,(302)672-1690,DELAWARE KENT,CHOICE PANTRY
600634,FBD- HK-DelStateU (College of EHPP)- SCP,1200 N. Dupont Highway,Main entrance- Price bldg,Dover,DE,19901,(302)462-7250,DELAWARE KENT,CHOICE PANTRY
600635,FBD-HK-W T Chipman-SCP,101 West Center Street,Chipman West ( Bldg in parking lot),Harrington DE ,DE,19952,(302)398-8197,DELAWARE KENT,CHOICE PANTRY
600636,FBD-HK- Campus Community Schoo- SCP,350 Pear Street,,Dover,DE,19904,(302)736-0403,DELAWARE KENT,CHOICE PANTRY
600637,FBD-Wesley College-SCP,120 N. State Street,Bennett Chapel (pantry) West side ,Dover,DE,19901,(484)226-5970,DELAWARE KENT,CHOICE PANTRY
61001,FBD-Delaware Center for Justice (DCJ)- CFP,314 Cherry Lane ,2nd floor ,New Castle,DE,19720,(302)498-5472,NEW CASTLE,CHOICE PANTRY
61002,FBD-Beebe Health Care- CFP,1515 Savanah Rd.,Cathy's Office,Lewis ,DE,19958,(302)645-3337,SUSSEX,CHOICE PANTRY
201132,Delmarva Teen Challenge ( Mass/Residential Program),PO Box 1271,611 3rd and North St,Seaford,DE,19973,(302)629-2559,SUSSEX,DINING ROOM
00291,RED LION UMC FC,RED LION UNITED METHODIST CHURCH,1545 CHURCH ROAD,BEAR,DE,19701,(302)834-1599,NEW CASTLE,FOOD CLOSET
01201,CLAYMONT CC FC,CLAYMONT COMMUNITY CENTER,3301 GREEN STREET,CLAYMONT,DE,19703,(302)792-2757,NEW CASTLE,FOOD CLOSET
02501,HANOVER PRESBYTERIAN FC,HANOVER PRESBYTERIAN CHURCH,1801 N JEFFERSON STREET,WILMINGTON,DE,19802,(302)658-5114,NEW CASTLE,FOOD CLOSET
02601,HOLY ROSARY OUTREACH FC,3200 PHILADELPHIA PIKE,,CLAYMONT,DE,19703,(302)798-1513,NEW CASTLE,FOOD CLOSET
03101,LACC FC (Family Services),LATIN AMERICAN COMMUNITY CENTER,403 NORTH VAN BUREN STREET,WILMINGTON,DE,19805,(302)655-7338,NEW CASTLE,FOOD CLOSET
03802,LIFE-HOPE LUTH CH-FC,230 CHRISTIANA ROAD,,NEW CASTLE,DE,19720,(302)328-7909,NEW CASTLE,FOOD CLOSET
03803,LIFE ST. STEPHENS FOOD CLOSET,1301 N BROOM ST,,WILMINGTON,DE,19806,(302)654-8886,NEW CASTLE,FOOD CLOSET
03804,LIFE ZION LUTHERAN CHURCH FC,2101 LANCASTER AVENUE,,WILMINGTON,DE,19805,(302)658-5288,NEW CASTLE,FOOD CLOSET
04001,NEIGH HSE WILM FC,1218 B STREET,,WILMINGTON,DE,19801,(302)658-5404,NEW CASTLE,FOOD CLOSET
04601,NEWARK AREA WELFARE FC,69 E Main Street,"P. O Box 951, 19715 (mail)",NEWARK,DE,19713,(302)690-1741,NEW CASTLE,FOOD CLOSET
05617,SALVATION ARMY FOOD CLOSET,SALVATION ARMY FAMILY SERVICES,400 North Orange Street,WILMINGTON,DE,19801,(302)472-0750,NEW CASTLE,FOOD CLOSET
06101,ST PATRICKS CENTER-FC,107 E 14TH STREET,,WILMINGTON,DE,19801,(302)652-6219,NEW CASTLE,FOOD CLOSET
06201,ST PAULS OUTREACH  FC,1010 WEST 4TH ST,,WILMINGTON,DE,19805,(302)655-6730,NEW CASTLE,FOOD CLOSET
06501,FIRST STATE COMMUNITY ACTION-FC,,,GEORGETOWN,DE,19947,(302)856-7761,SUSSEX,FOOD CLOSET
06701,WEST END NEIGHBORHOOD HOUSE FC,710 N LINCOLN STREET,,WILMINGTON,DE,19805,(302)658-4171,NEW CASTLE,FOOD CLOSET
07081,CC-Casa San Francisco FC,127 Broad Street,P.O Box 38,Milton,DE,19968,(302)684-8694,SUSSEX,FOOD CLOSET
09901,ST HELENA'S OUTREACH FC,602 PHILADELPHIA PIKE,,WILMINGTON,DE,19809,(302)764-0325,NEW CASTLE,FOOD CLOSET
1000012,Ellendale UMC Open Arms pantry,603 E Main Street,,Ellendale ,DE,19941,(302)422-9160,SUSSEX,FOOD CLOSET
11501,Pantry Of Hope-ABC- Food Closet,2020 Firedancer Lane,716 Pulaski Highway-service add,Bear,DE,19701,(302)276-1676,NEW CASTLE,FOOD CLOSET
11601,HOLY CROSS-FC,631 S STATE STREET,C/O Lloyd Maraist,DOVER,DE,19901,(302)674-5780,DELAWARE KENT,FOOD CLOSET
13201,Joseph's Storehouse- DAGSBORO CHURCH OF GOD FC,32224 Dupont Blvd,,DAGSBORO,DE,19939,(302)732-6550,SUSSEX,FOOD CLOSET
13301,CALVARY ASSEMBLY OF GOD - FC,1141 E LEBANON ROAD,,DOVER,DE,19901,(302)697-7776,DELAWARE KENT,FOOD CLOSET
17701,The Renewal Center-FC- UAME Church,REV DONIA G COPELAND,305 Bayard Street,DELAWARE CITY,DE,19706,(302)834-5407,NEW CASTLE,FOOD CLOSET
18501,Christian Storehouse-FC,PO BOX 239,"149 Mitchell St, Millsboro",MILLSBORO,DE,19966,(302)934-8151,SUSSEX,FOOD CLOSET
200011,Emanuels House,PO Box 370,370 White Street (29395),Millsboro ,DE,19966,(302)934-5583,SUSSEX,FOOD CLOSET
200131,BLESSINGS UNLIMITED FOOD PANTRY ,36759 Millsboro Hwy,,Millsboro,DE,19966,(302)238-7370,SUSSEX,FOOD CLOSET
200191,EAGLES NEST MINISTRIES ,PO Box 129 ,26633 Zion Church Rd,Milton,DE,19968,(302)684-4983,SUSSEX,FOOD CLOSET
200431,Hillcrest Bellefont UMC,400 Hillcrest Ave,,Wilmington,DE,19809,(302)764-3145,NEW CASTLE,FOOD CLOSET
200506,Mt. CARMEL CHURCH OF THE LIVING GOD-FOOD CLOSET,117 N West Street,,Dover,DE,19904,(302)465-0630,DELAWARE KENT,FOOD CLOSET
201071,Clarence Street Church of God FC,P.O. Box 817,service add-744 Clarence Street,Seaford,DE,19973,(302)448-0852,SUSSEX,FOOD CLOSET
201091,Brandywine Community UMC- FC,2200 N Market Street,,Wilmington ,DE,19802,(302)652-5554,NEW CASTLE,FOOD CLOSET
201101,Shechinah Empowerment Center ( food closet),231 S. Race st.,,Georgetown,DE,19947,(302)858-4467,SUSSEX,FOOD CLOSET
201261,St. John the Apostle Food Pantry,506 Seabury Avenue,,Milford,DE,19963,(302)422-7253,DELAWARE KENT,FOOD CLOSET
201281,Rick VasnStory (RVRC)- Food closet,500west 2nd street,,Wilmington,DE,19801,(302)691-7946,NEW CASTLE,FOOD CLOSET
210091,CHRIST OUR KING FC,2810 North Monroe Street,,Wilmington,DE,19802,(302)762-4140,NEW CASTLE,FOOD CLOSET
210201,GREAT COMM. OUTREACH ,,628 Townsend St,Wilmington,DE,19804,(302)798-0964,NEW CASTLE,FOOD CLOSET
215961,People's Baptist Church,50 South Street,Hamilton Park,New Castle ,De,19720,(302)658-6218,NEW CASTLE,FOOD CLOSET
220011,CAPE HENLOPEN FOOD BASKET FC,P.O. Box 168-Mailing Address-Rehobo,37510 Oyster House Road Rehoboth,Nassau,DE,19969,(302)226-0165,SUSSEX,FOOD CLOSET
25101,AIDS DELAWARE INC-FC,SUITE 315,100 W 10TH STREET,WILMINGTON,DE,19801,(302)652-6776,NEW CASTLE,FOOD CLOSET
35100,St. Phillip's Lutheran Church,5320 Limestone Rd,,Wilmington,DE,19808,(302)690-9159,NEW CASTLE,FOOD CLOSET
35101,St. Phillips- Food Pantry,5320 Limestone Road,,Wilmington,DE,19808,(302)690-9159,NEW CASTLE,FOOD CLOSET
37001,UAW LOCAL 1183-FC,698 OLD BALTIMORE PIKE,,NEWARK,DE,19713,(302)738-4500,NEW CASTLE,FOOD CLOSET
400131,Lake Forest Church Asso,PO Box 101 (Mailing),102 Dorman St. (Physical Add.),Harrington,DE,19952,(302)222-8404,DELAWARE KENT,FOOD CLOSET
40411,MILLSBORO SDA CHURCH,"30007 Cordry Rd., P.O. BOX 512",,MILLSBORO,DE,19966,(302)945-2260,SUSSEX,FOOD CLOSET
40511,MILFORD COMMUNITY PANTRY,20 NORTH CHURCH STREET,,MILFORD,DE,19963,(302)422-8111,SUSSEX,FOOD CLOSET
48001,Appoquinimink State Service Center,122 SILVER LAKE ROAD,,MIDDLETOWN,DE,19709,(302)378-5770,NEW CASTLE,FOOD CLOSET
48002,DELAWARR STE SERCNTR-FC,500 ROGERS ROAD,,NEW CASTLE,DE,19720,(302)577-2970,NEW CASTLE,FOOD CLOSET
48004,PORTER SRVCENTR-FC,509 WEST 8TH STREET,,WILMINGTON,DE,19801,(302)777-2803,NEW CASTLE,FOOD CLOSET
48005,Williams State Service Center,805 RIVER ROAD,,DOVER,DE,19901,(302)857-5000,DELAWARE KENT,FOOD CLOSET
48006,Milford State Service Center,13 SOUTHWEST FRONT STREET, 11 N. Church street,MILFORD,DE,19963,(302)424-7230,SUSSEX,FOOD CLOSET
48007,Adams State Service Center (Georgetown),546 S BEDFORD STREET,,GEORGETOWN,DE,19947,(302)856-5574,SUSSEX,FOOD CLOSET
48009,HUDSON ST SRVC. CNTR. FC,501 OGELTOWN ROAD,,NEWARK,DE,19711,(302)283-7500,NEW CASTLE,FOOD CLOSET
48015,Churchman's Social Service Center,84 B Christiana Road,,New Castle,DE,19720,(302)395-6740,NEW CASTLE,FOOD CLOSET
48016,Robscott Social Srvce  Center,153 Chestnut Hill Road,,Newark,DE,19711,(302)368-6725,NEW CASTLE,FOOD CLOSET
48017,Blue Hen (old Carroll's Plaza)  State Service- FC,655 South Bay Road suite 21,,Dover,DE,19901,(302)672-9526,DELAWARE KENT,FOOD CLOSET
48018,Belvedere State Service Center,310 Kiamensi Road,,Wilmington ,DE,19804,(302)995-8545,NEW CASTLE,FOOD CLOSET
48021,BRIDGEVILLE STATE SERVICE CNTR,400 MILL STREET,,BRIDGEVILLE,DE,19933,(302)337-8262,SUSSEX,FOOD CLOSET
48031,SHIPLEY STATE SERVICE CENTER,350 VIRGINIA AVENUE,,SEAFORD,DE,19973,(302)628-2000,SUSSEX,FOOD CLOSET
48041,LAUREL STATE SERVICE CENTER,440 N. POPLAR STREET,,LAUREL,DE,19956,(302)875-6943,SUSSEX,FOOD CLOSET
48061,PYLE STATE SERVICE CENTER,34314 Pyle Center rd,,FRANKFORD,DE,19945,(302)732-9501,SUSSEX,FOOD CLOSET
48062,Smyrna State Service Center,200 South DuPont Boulevard,Suite 101,Smyrna ,DE,19977,(302)514-4500,DELAWARE KENT,FOOD CLOSET
48063,Camby Park Social Service Center FC,1920 Maryland Avenue,,Wilmington ,DE,19805,(302)498-5556,NEW CASTLE,FOOD CLOSET
48111,MAMIE WARREN CENTER-FC,1775 WHEATLEYS POND RD,,SMYRNA,DE,19977,(302)653-4078,DELAWARE KENT,FOOD CLOSET
48951,EVANGELISTIC TEMPLE OF TRUTH-FC,1300 Elm Street,Service address,Wilmington,De,19805,(302)276-2954,NEW CASTLE,FOOD CLOSET
500510,FBD Food Closet Program Milford,1040 Mattlind Way,,Milford,De,19963,(302)424-3301,DELAWARE KENT,FOOD CLOSET
500701,FBD-Hurds Crossing Apartments-CSFP,94 Hurds Boulevard,,Felton,DE,19943,(302)284-4753,DELAWARE KENT,FOOD CLOSET
72101,Asbury UMC- Food Closet,300 East Basin Road,,New Castle,DE,19720,(302)328-5649,NEW CASTLE,FOOD CLOSET
80091,"THE LIGHTHOUSE, INC Food Closet",6 SOUTH RAILROAD AVENUE,,CAMDEN,DE,19934,(302)697-1472,DELAWARE KENT,FOOD CLOSET
83801,CENTENARY UNITED METHODIST FC,200 W. Market St.,,LAUREL,DE,19956,(302)875-3983,SUSSEX,FOOD CLOSET
90921,"Harvest Ministries, Inc Fc (Sister Share Only)",PO box 506,,Delmar,DE,19940,(302)846-3001,SUSSEX,FOOD CLOSET
910002,Stein Highway Church of God FC- Lighted Pathways,P.O.Box 640   (Mailing Add.),425 E Stein Hwy.  (Physical Add.),Seaford,DE,19973,(302)629-8583,SUSSEX,FOOD CLOSET
20124,FBD-Limen House- Candy ONLY,600 West 10th Street,,Wilmington,DE,19801,(302)652-1125,NEW CASTLE,HOLIDAY HELPERS
20125,FBD-Gaudenzia- Candy ONLY,604 W 10th st.,,Wilmington,DE,19801,(302)421-9025,NEW CASTLE,HOLIDAY HELPERS
05611,SALVATION ARMY ARC - ONSITE,107 S MARKET STREET,,WILMINGTON,DE,19801,(302)654-8808,NEW CASTLE,HOUSING PROGRAMS
45699,FBD-CSA ,14 Garfield Way,,Newark ,DE,19713,(302)292-1305,NEW CASTLE,LIFE SKILLS
03805,LIFE MASS DISTRIBUTION,LUTHERAN COMMUNITY SERVICES,1301 N. Broom Street ,WILMINGTON,DE,19806,(302)293-6176,NEW CASTLE,MASS DISTRIBUTION
03808,LIFE ST PAULS LUTHERAN CHURCH HOPE,701 South College Ave,,Newark,DE,19713,(302)654-8886,NEW CASTLE,MASS DISTRIBUTION
03809,LIFE ARBOR MANAGEMENT,431 Old Forge Rd,,New Castle ,DE,19702,(302)837-7049,NEW CASTLE,MASS DISTRIBUTION
03811,LUTHERAN COMMUNTIY SERV.MAIN TOWERS,330 East Main St,,Newark,DE,19711,(302)837-7049,NEW CASTLE,MASS DISTRIBUTION
03816,LCS-Haven of Caring,604 N. Walnut st,,Wilmington,DE,19801,(302)654-8886,NEW CASTLE,MASS DISTRIBUTION
03817,LCS-Westminster Presbyterian,1506 W 13th Street,,Wilmington ,DE,19806,(302)654-8886,NEW CASTLE,MASS DISTRIBUTION
04005,NEIGH HSE MIDD-FC,219 WEST GREEN STREET,,MIDDLETOWN,DE,19709,(302)378-7217,NEW CASTLE,MASS DISTRIBUTION
201169,FBD- Palmer Senior Mobile Pantry Kent ,1040 Mattlind Way,,Milford,DE,19963,(302)444-8129,DELAWARE KENT,MASS DISTRIBUTION
03806,LIFE- HOPE LUTHERAN MOBILE PANTRY,,230 Christiana Road,New Castle,DE,19720,(302)654-8886,NEW CASTLE,MOBILE PANTRY
03812,LIFE - Shiloh Mobile Pantry,215 West 23rd St.,,Wilmington,DE,19802,(302)654-8886,NEW CASTLE,MOBILE PANTRY
45688,FBD-Back Packs- New Castle,14 Garfield Way,,Newark,DE,19713,(302)444-8128,NEW CASTLE,MOBILE PANTRY
45689,FBD-Back Packs- Kent County,1040 Mattlind Way,,Milford ,DE,19963,(302)444-8128,DELAWARE KENT,MOBILE PANTRY
45690,FBD-Back Packs- Sussex County,1040 Mattlind Way,,Milford,DE,19963,(302)444-8128,SUSSEX,MOBILE PANTRY
45698,FBD MOBILE PANTRY-NCC (Truck),14 Garfield Way,,Newark,DE,,(___)___-____,NEW CASTLE,MOBILE PANTRY
45701,FBD-Fresh Prescription Program,14 Garfield Way,,Newark,DE,19713,(302)292-1305,NEW CASTLE,MOBILE PANTRY
500501,FBD-Terry Apartments CSFP,2400 N Broom Street,CSFP Only,Wilmington ,DE,19802,(302)655-6661,NEW CASTLE,MOBILE PANTRY
500502,FBD-Luther Towers I- CSFP,1201 N. Harrison Street,,Wilmington,DE,19806,(302)652-3737,NEW CASTLE,MOBILE PANTRY
500503,FBD-Luther Towers II- CSFP,1420 North Franklin Street,,Wilmington,DE,19806,(302)654-4491,NEW CASTLE,MOBILE PANTRY
500504,FBD-Modern Maturity Center- CSFP,1121 Forrest Ave,,Dover,DE,19904,(302)674-1200,DELAWARE KENT,MOBILE PANTRY
500505,FBD-Luther Village- CSFP,101 Babb Drive # 1000,X 10,Dover,DE,19901,(302)674-3780,DELAWARE KENT,MOBILE PANTRY
500506,FBD-Luther Towers- CSFP,430 Kings Hwy,x10,Dover,DE,19901,(302)674-3780,DELAWARE KENT,MOBILE PANTRY
500508,FBD-Sacred Heart Village CSFP,917 North Madison St.,,Wilmington,DE,19802,(302)654-5407,NEW CASTLE,MOBILE PANTRY
500509,FBD- Windsor Aparments-CSFP,500 N. Walnut Street,(was Macedonia),Wilmington,DE,19801,(302)292-6821,NEW CASTLE,MOBILE PANTRY
500511,FBD-Macedonia @ Baynard Apts.-CSFP,309  W 18th Street,,Wilmington ,DE,19802,(302)765-2018,NEW CASTLE,MOBILE PANTRY
500513,FBD- Milford Produce for Childrens Feeding,1040 Mattlind Way,,Milford,DE,,(302)424-3301,DELAWARE KENT,MOBILE PANTRY
500516,FBD-Los Jardines- CSFP,1000 W 5th St,CSFP only,Wilmington ,DE,19805,(302)652-6391,NEW CASTLE,MOBILE PANTRY
500517,FBD-Wilmington Senior Center-CSFP,1901 N Market Street,CSFP only,Wimington ,DE,19802,(302)651-3427,NEW CASTLE,MOBILE PANTRY
500518,FBD-George Reed Village CSFP,Independence Circle (Culdesac),parking lot of development,Newark,DE,19711,(302)444-8077,NEW CASTLE,MOBILE PANTRY
500519,FBD-Parkview Senior Apts- CSFP,1800 N. Broom Street,CSFP Only- FBD ran,Wilmington ,DE,19802,(302)444-8077,NEW CASTLE,MOBILE PANTRY
500520,FBD-Marydale Retirement Village-CSFP,135 Jeandell Drive,CSFP Only,Newark,DE,19713,(302)368-2784,NEW CASTLE,MOBILE PANTRY
500522,FBD-Delmar Crossing Apts. Villas I & II- CSFP,600 Magnolia Drive #601,,Delmar ,DE,19973,(302)846-3343,SUSSEX,MOBILE PANTRY
500523,"FBD-PDH Ministries, Inc.-CSFP",1401 A Street,"Luz Berrios- 650-2685, second contc",Wilmington,DE,19801,(302)656-2021,NEW CASTLE,MOBILE PANTRY
500524,FBD-St. Patrick's Center-CSFP,107 East 14th Street,,Wilmington ,DE,19801,(302)652-6219,NEW CASTLE,MOBILE PANTRY
500525,FBD-Claymont CC-CSFP,3301 Green Street,,Claymont,DE,19703,(302)374-0707,NEW CASTLE,MOBILE PANTRY
500527,FBD-Arbor Mng Main Towers-CSFP,330 East Main Street,,Wilmington ,DE,19711,(302)837-7049,NEW CASTLE,MOBILE PANTRY
500528,FBD-Arbor Mng Chelten Towers-CSFP,431 Old Forge Road,,New Castle ,DE,19720,(302)837-7049,NEW CASTLE,MOBILE PANTRY
500533,FBD-Mamie Warren Senior C-CSFP,1775 Wheatley's Pond Road,,Smyrna,DE,19955,(302)653-4078,DELAWARE KENT,MOBILE PANTRY
500534,FBD-Calvary Assembly of God-CSFP,1141 East Lebanon RD,,Dover,DE,19901,(302)743-8775,DELAWARE KENT,MOBILE PANTRY
500536,FBD-Milford Branch-CSFP,1040 Mattlind Way,,Milford,DE,19963,(302)393-2010,DELAWARE KENT,MOBILE PANTRY
500537,FBD-St. Bernadette-CSFP,109 Dixon Street,,Harrington,DE,19952,(302)398-8269,DELAWARE KENT,MOBILE PANTRY
500538,FBD-Casa SanFrancisco-CSFP,127 Broad Street,,Milton,DE,19968,(302)684-6894,SUSSEX,MOBILE PANTRY
500540,FBD-Indian River Senior Center-CSFP,214 Irons Ave.,,Millsboro,DE,19966,(302)393-2010,SUSSEX,MOBILE PANTRY
500541,FBD-Jefferson Apartments-CSFP,825 Kings Highway,,Lewes ,DE,19958,(302)393-2010,SUSSEX,MOBILE PANTRY
500542,FBD-Herlihy Apartments-CSFP,320 east 5th Street,,Wilmington ,DE,19801,(302)444-8077,NEW CASTLE,MOBILE PANTRY
500543,FBD-Marrows Court Apt-CSFP,100 A Witherspoon Lane,,Newark,DE,19713,(302)453-9596,NEW CASTLE,MOBILE PANTRY
500549,FBD-Huling Cove- CSFP,142-306 Savannah Road,,Lewes ,DE,19958,(302)645-7630,SUSSEX,MOBILE PANTRY
500550,FBD-Silver Lake Apartments- CSFP,14 Garfield Way,,Newark,DE,19713,(302)292-1305,DELAWARE KENT,MOBILE PANTRY
500551,FBD-Seaford Meadows Apartments-CSFP,122 Seaford Meadows Dr,,Seaford,DE,19973,(302)444-8129,SUSSEX,MOBILE PANTRY
500552,FBD-Laurel Commons-CSFP,100 Laurel Commons Lane,,Laurel ,DE,19956,(___)___-____,SUSSEX,MOBILE PANTRY
500553,FBD-Harbour Town Apts-CSFP,34232 Woods Edge Dr., ,Lewes,DE,19958,(302)644-4988,SUSSEX,MOBILE PANTRY
500555,FBD-Ingleside @ Claymore Senior Center CSFP,504 S Clayton Street,,Wilmington ,DE,19801,(302)575-0250,NEW CASTLE,MOBILE PANTRY
500557,FBD-Manna Fellowship-CSFP,733 E 22nd Street,,Wilmington ,DE,19802,(302)798-0964,NEW CASTLE,MOBILE PANTRY
500558,FBD-Quaker Hill-CSFP,200 Washington Street,,Wilmington ,DE,19801,(302)571-0735,NEW CASTLE,MOBILE PANTRY
500559,FBD-Salvation Army Senior Center-CSFP,400 N Orange Strret,,Wilmington ,DE,19802,(302)472-0770,NEW CASTLE,MOBILE PANTRY
500560,FBD-New Castle County Senior Center-CSFP,400 South Street,,New Castle,DE,19720,(302)326-4209,NEW CASTLE,MOBILE PANTRY
500562,FBD-Bridgeville Senior Center-CSFP,414 Market Street,,Bridgeville ,DE,19933,(302)337-8771,SUSSEX,MOBILE PANTRY
500564,FBD-WoodLea Apartment-CSFP,5500 Fairmount Drive,,Wilmington,DE,19808,(302)575-0250,NEW CASTLE,MOBILE PANTRY
500565,FBD-Newark Senior Center-CSFP,200 White Chapel Drive,,Newark,DE,19713,(302)737-7336,NEW CASTLE,MOBILE PANTRY
500568,FBD-Liberty Terrace Apartments-CSFP,100 Liberty Terrace Apartments,,Newark,DE,19702,(302)322-6535,NEW CASTLE,MOBILE PANTRY
500569,FBD-Milford Crossing-CSFP,806 Moyer Cir E # A,,Milford,DE,19963,(302)422-3343,SUSSEX,MOBILE PANTRY
500570,FBD-Luther Gardens-CSFP,1500 Luther Circle ,,Milton,DE,19968,(302)684-2906,SUSSEX,MOBILE PANTRY
500571,FBD-Harrington Senior Center-CSFP,102 Fleming Street,,Harrington ,DE,19952,(302)398-4224,SUSSEX,MOBILE PANTRY
500572,FBD-St. Stephen's United Methodist Church-CSFP,101 East State St,)846-9501,Delmar,DE,19940,(302)846-2746,SUSSEX,MOBILE PANTRY
500573,FBD-Newark Wrhse-CSFP,14 Garfield Way,,Newark,DE,19713,(302)444-8129,NEW CASTLE,MOBILE PANTRY
500574,FBD-Herring Manor-CSFP,2412 N. Market Street,,Wilmington ,DE,19802,(302)655-2418,NEW CASTLE,MOBILE PANTRY
500575,FBD-Crestview-CSFP,2700 Market Street ,,Wilmington,DE,19802,(302)444-8129,NEW CASTLE,MOBILE PANTRY
500580,FBD-Clarence Street Church of God-CSFP,744 Clarence Street,P.O. BOX 817,Seaford ,DE,19973,(302)629-9443,SUSSEX,MOBILE PANTRY
500581,FBD-Cheer Apartments-CSFP,1121 Clark Drive,,Georgetown ,DE,19947,(302)856-6676,SUSSEX,MOBILE PANTRY
500582,FBD-Greenwood Acres Apartments-CSFP,5 Greenwood Acres Drive,,Greenwood,DE,19950,(302)349-0124,SUSSEX,MOBILE PANTRY
500583,FBD-Virginia Crest- CSFP,101 Independence Drive,Virginia Crest Community bldg,Seaford,DE,19973,(302)628-0212,SUSSEX,MOBILE PANTRY
500584,FBD-Milton Luther Towers-CSFP,127 Broad St.,P.O.Box 38,Milton,DE,19968,(302)684-8694,SUSSEX,MOBILE PANTRY
500585,FBD-Compton Apartments-CSFP,650 N. Walnut Street,,Wilmington,DE,19801,(302)654-4369,NEW CASTLE,MOBILE PANTRY
500587,FBD-Lake Forest Church Assc-Felton-CSFP,101 East Main Street,,Felton,DE,19943,(302)284-9749,DELAWARE KENT,MOBILE PANTRY
500590,FBD-Carrington Way/ Carlton Court- CSFP,100 Kimberton Drive,,Newark,DE,19713,(302)368-0116,NEW CASTLE,MOBILE PANTRY
500591,FBD-Jewish Family Services-CSFP,8300 Society Dr.,B'nai B'rith Senior citizen House,Claymont,DE,19703,(302)798-0600,NEW CASTLE,MOBILE PANTRY
500592,FBD-Dunbarton Apartments-CSFP,1309 Dunbarton Apartments,,Georgetown,DE,19947,(302)856-7719,SUSSEX,MOBILE PANTRY
500593,FBD-Lincoln Towers-CSFP,1800 N. Dupont St. ,,Wilmington ,DE,19806,(302)444-8129,NEW CASTLE,MOBILE PANTRY
500601,FBD Senior Mobile Pantry- NCC,14 Garfield Way,,Newark ,DE,19713,(320)444-8129,NEW CASTLE,MOBILE PANTRY
500602,FBD-Senior Mobile Pantry- Kent,1040 Mattlind Way,,Milford,DE,19963,(302)444-8129,DELAWARE KENT,MOBILE PANTRY
500603,FBD-Senior Mobile Pantry- Sussex,1040 Mattlind Way,,Milford ,DE,19963,(302)444-8129,SUSSEX,MOBILE PANTRY
500668,FBD-Middletown Trace apartments- CSFP,67 New Street,,Middletown,DE,19709,(302)378-4611,NEW CASTLE,MOBILE PANTRY
500669,FBD-Commerce Square Apts-CSFP,101 Talon Court,,Smyrna,DE,19977,(302)653-1217,DELAWARE KENT,MOBILE PANTRY
500700,FBD-Carlton Court Apts-CSFP,1900 Southway Drive,,Newark,DE,19713,(302)454-1800,NEW CASTLE,MOBILE PANTRY
500702,FBD-Frazier Place Apartments- CSFP,200 Goldsborough Way,,Smyrna,DE,19977,(302)653-1235,DELAWARE KENT,MOBILE PANTRY
500703,FBD-Maplewood Apts. CSFP,501 S. Clayton Street,(FBD- Milford Site),Wilmington ,DE,19805,(302)444-8129,NEW CASTLE,MOBILE PANTRY
500704,FBD-Immanuel Methodist Church-CSFP,756 Main Street,(Lenape Indian Tribe of DE),Cheswold,DE,19936,(302)734-3207,DELAWARE KENT,MOBILE PANTRY
500705,FBD-Fairfield Common Apts.- CSFP,100 Fairfield Ct.,,Middletown,DE,19709,(302)376-0920,NEW CASTLE,MOBILE PANTRY
500706,FBD- Calvary Weslyan Church- CSFP,240 Delaware avenue,,Harrington,DE,19952,(302)398-3618,DELAWARE KENT,MOBILE PANTRY
00152,NANTICOKE SENIOR CENTER,100 west locus street ,,SEAFORD,DE,19973,(302)629-4939,SUSSEX,ON-SITE MEALS
00708,CC - Bayard House Onsite,BAYARD HOUSE,300 BAYARD AVE,WILMINGTON,DE,19805,(302)654-1184,NEW CASTLE,ON-SITE MEALS
02701,SOJOURNERS PLACE ONSITE,2901 NORTHEAST BLVD,,WILMINGTON,DE,19802,(302)764-4713,NEW CASTLE,ON-SITE MEALS
03401,LITTLE SISTERS ONSITE,LITTLE SISTERS OF THE POOR,185 SALEM CHURCH ROAD,NEWARK,DE,19713,(302)368-5886,NEW CASTLE,ON-SITE MEALS
06801,WESTMINSTER PRESBY BRKFST ONSITE,1502 WEST 13 TH STREET,"feeding site is 500 W 8th st, ",WILMINGTON,DE,19806,(302)654-5214,NEW CASTLE,ON-SITE MEALS
07005,YWCA HOME LIFE MGMT CTR-ONSITE,709 N. MADISON STREET,,WILMINGTON,DE,19801,(302)658-7110,NEW CASTLE,ON-SITE MEALS
08001,EMMANUEL DINING ROOM ,MINISTRY OF CARING,121 North Jackson Street,WILMINGTON,DE,19801,(302)652-3228,NEW CASTLE,ON-SITE MEALS
08004,MARY MOTHER OF HOPE HOUSE I,MINISTRY OF CARING,917-B NORTH MADISON,WILMINGTON,DE,19801,(302)652-8532,NEW CASTLE,ON-SITE MEALS
08007,HOUSE OF JOSEPH I ,MINISTRY OF CARING,1328 W 3RD STREET,WILMINGTON,DE,19801,(302)652-0904,NEW CASTLE,ON-SITE MEALS
10502,People's Place2- The SAFE Program,1129 Airport Rd,,MILFORD,DE,19963,(303)422-8058,DELAWARE KENT,ON-SITE MEALS
12101,EARLY LEARNING CNTR-OS,201 Bayard Avenue, ,WILMINGTON,DE,19805,(302)656-7610,NEW CASTLE,ON-SITE MEALS
14001,SERENITY PLACE  ONSITE,,327 MARTIN STREET,DOVER,DE,19901,(302)674-8036,DELAWARE KENT,ON-SITE MEALS
19706,CONNECTIONS CSP-CAFE,500 W 8th Street,,Wilmington,DE,19801,(302)984-2302,NEW CASTLE,ON-SITE MEALS
200571,Delaware Humane Association,P.O. Box 99,,Montchanin,DE,19710,(302)571-8171,NEW CASTLE,ON-SITE MEALS
200751,Forgotten Cats,4023 Kennett Pike suite 422,(2601 St. James Church rd- 19808),Greenville ,DE,19807,(302)475-3282,NEW CASTLE,ON-SITE MEALS
201341,CEB,1200 N French Street,Deliver at Dock on 12th & Walnut,Wilmington ,DE,19801,(302)660-4804,NEW CASTLE,ON-SITE MEALS
201601,Eight-O-One Shelter- (Aid in Dover),,891 W Division Street,Dover,DE,19904,(302)734-7610,DELAWARE KENT,ON-SITE MEALS
201701,Delaware Residential Re-Entry Center (Community Solutions),1421 Marsh Road,,Wilmington,DE,19802,(302)660-8691,NEW CASTLE,ON-SITE MEALS
300201,The Elizabeth W. Murphey School    On site feeding,42 Kings Highway East,,Dover ,De,19901,(302)734-7478,DELAWARE KENT,ON-SITE MEALS
51301,Bernice's Educational School Age Center-Onsite,111 South Lincoln Street,,WILMINGTON,DE,19805,(302)983-7982,NEW CASTLE,ON-SITE MEALS
80101,KENT-SUSSEX INDUSTRIES-OS,301 N Rehoboth BLVD,,MILFORD,DE,19963,(302)422-4014,DELAWARE KENT,ON-SITE MEALS